NORAD_CAT_ID,OBJECT_NAME,OBJECT_TYPE,EPOCH,MEAN_MOTION,ECCENTRICITY,INCLINATION,RA_OF_ASC_NODE,ARG_OF_PERICENTER,MEAN_ANOMALY,BSTAR,MEAN_MOTION_DOT,MEAN_MOTION_DDOT,TLE_LINE0,TLE_LINE1,TLE_LINE2,SEMIMAJOR_AXIS,PERIOD,APOGEE,PERIGEE,DECAYED
54083.0,STARLINK-5178,PAYLOAD,2023-02-12 13:55:00,15.08836581,9.65e-05,53.2177,327.0438,68.5847,291.5248,-0.00023233,-3.983e-05,0.0,0 STARLINK-5178,1 54083U 22136AJ  23043.57986670 -.00003983  00000-0 -23233-3 0  9995,2 54083  53.2177 327.0438 0000965  68.5847 291.5248 15.08836581 18210,6917.891,95.438,540.423,539.088,0.0
54083.0,STARLINK-5178,PAYLOAD,2023-02-12 20:16:33,15.08820358,4.69e-05,53.2195,325.8533,115.824,244.28,-0.00012144,-2.219e-05,0.0,0 STARLINK-5178,1 54083U 22136AJ  23043.84483493 -.00002219  00000-0 -12144-3 0  9990,2 54083  53.2195 325.8533 0000469 115.8240 244.2800 15.08820358 18252,6917.94,95.439,540.13,539.481,0.0
54083.0,STARLINK-5178,PAYLOAD,2023-02-13 04:13:28,15.08844082,8.63e-05,53.2182,324.3663,77.5354,282.5735,-7.4546e-05,-1.474e-05,0.0,0 STARLINK-5178,1 54083U 22136AJ  23044.17602206 -.00001474  00000-0 -74546-4 0  9999,2 54083  53.2182 324.3663 0000863  77.5354 282.5735 15.08844082 18302,6917.868,95.437,540.33,539.136,0.0
54083.0,STARLINK-5178,PAYLOAD,2023-02-13 12:10:24,15.08838812,7.99e-05,53.2181,322.8772,88.906,271.2023,-0.00017204,-3.024e-05,0.0,0 STARLINK-5178,1 54083U 22136AJ  23044.50722810 -.00003024  00000-0 -17204-3 0  9990,2 54083  53.2181 322.8772 0000799  88.9060 271.2023 15.08838812 18357,6917.884,95.438,540.302,539.196,0.0
54083.0,STARLINK-5178,PAYLOAD,2023-02-14 04:04:14,15.08861339,0.0001009,53.2185,319.9042,87.8315,272.2793,3.1238e-05,2.1e-06,0.0,0 STARLINK-5178,1 54083U 22136AJ  23045.16960945  .00000210  00000-0  31238-4 0  9992,2 54083  53.2185 319.9042 0001009  87.8315 272.2793 15.08861339 18450,6917.815,95.436,540.378,538.982,0.0
54083.0,STARLINK-5178,PAYLOAD,2023-02-15 00:44:16,15.08832816,9.77e-05,53.2177,316.0406,70.9095,289.2003,0.00016687,2.368e-05,0.0,0 STARLINK-5178,1 54083U 22136AJ  23046.03074237  .00002368  00000-0  16687-3 0  9995,2 54083  53.2177 316.0406 0000977  70.9095 289.2003 15.08832816 18588,6917.902,95.438,540.443,539.091,0.0
54083.0,STARLINK-5178,PAYLOAD,2023-02-15 10:16:34,15.08840218,9.08e-05,53.2172,314.256,66.4453,293.6635,4.1713e-05,3.76e-06,0.0,0 STARLINK-5178,1 54083U 22136AJ  23046.42818170  .00000376  00000-0  41713-4 0  9996,2 54083  53.2172 314.2560 0000908  66.4453 293.6635 15.08840218 18165,6917.88,95.438,540.373,539.117,0.0
54083.0,STARLINK-5178,PAYLOAD,2023-02-15 21:24:16,15.08845636,0.0001284,53.2199,312.1757,120.9916,239.1203,9.4503e-05,1.217e-05,0.0,0 STARLINK-5178,1 54083U 22136AJ  23046.89185639  .00001217  00000-0  94503-4 0  9994,2 54083  53.2199 312.1757 0001284 120.9916 239.1203 15.08845636 18230,6917.863,95.437,540.616,538.84,0.0
54083.0,STARLINK-5178,PAYLOAD,2023-02-16 00:35:01,15.08865042,0.0001038,53.218,311.5782,95.2045,264.9066,3.2912e-05,2.36e-06,0.0,0 STARLINK-5178,1 54083U 22136AJ  23047.02432715  .00000236  00000-0  32912-4 0  9996,2 54083  53.2180 311.5782 0001038  95.2045 264.9066 15.08865042 18736,6917.804,95.436,540.387,538.951,0.0
54083.0,STARLINK-5178,PAYLOAD,2023-02-16 10:07:21,15.08846129,0.0001678,53.2182,309.7946,67.9162,292.2008,7.9028e-07,-2.76e-06,0.0,0 STARLINK-5178,1 54083U 22136AJ  23047.42177973 -.00000276  00000-0  79028-6 0  9998,2 54083  53.2182 309.7946 0001678  67.9162 292.2008 15.08846129 18796,6917.862,95.437,540.887,538.566,0.0
54083.0,STARLINK-5178,PAYLOAD,2023-02-16 22:50:29,15.08816922,0.0001001,53.2171,307.4158,59.7803,300.3288,-0.00019765,-3.43e-05,0.0,0 STARLINK-5178,1 54083U 22136AJ  23047.95172620 -.00003430  00000-0 -19765-3 0  9995,2 54083  53.2171 307.4158 0001001  59.7803 300.3288 15.08816922 18873,6917.951,95.439,540.508,539.123,0.0
54083.0,STARLINK-5178,PAYLOAD,2023-02-17 02:01:14,15.08834775,9.2e-05,53.2174,306.821,71.6206,288.4886,-4.3265e-05,-9.76e-06,0.0,0 STARLINK-5178,1 54083U 22136AJ  23048.08419129 -.00000976  00000-0 -43265-4 0  9993,2 54083  53.2174 306.8210 0000920  71.6206 288.4886 15.08834775 18895,6917.896,95.438,540.398,539.125,0.0
54083.0,STARLINK-5178,PAYLOAD,2023-02-17 21:05:53,15.08821466,0.0001648,53.2192,303.2548,83.8707,276.2473,-0.00011316,-2.088e-05,0.0,0 STARLINK-5178,1 54083U 22136AJ  23048.87909261 -.00002088  00000-0 -11316-3 0  9998,2 54083  53.2192 303.2548 0001648  83.8707 276.2473 15.08821466 18530,6917.937,95.439,540.942,538.662,0.0
54083.0,STARLINK-5178,PAYLOAD,2023-02-18 00:16:39,15.08826782,0.0001301,53.2192,302.6568,73.2441,286.8694,-0.00013556,-2.444e-05,0.0,0 STARLINK-5178,1 54083U 22136AJ  23049.01157101 -.00002444  00000-0 -13556-3 0  9997,2 54083  53.2192 302.6568 0001301  73.2441 286.8694 15.08826782 19033,6917.921,95.438,540.686,538.886,0.0
54083.0,STARLINK-5178,PAYLOAD,2023-02-18 09:48:57,15.08845613,0.0001039,53.2183,300.8741,93.1469,266.9642,-0.00010096,-1.894e-05,0.0,0 STARLINK-5178,1 54083U 22136AJ  23049.40899850 -.00001894  00000-0 -10096-3 0  9998,2 54083  53.2183 300.8741 0001039  93.1469 266.9642 15.08845613 19097,6917.863,95.437,540.447,539.009,0.0
54083.0,STARLINK-5178,PAYLOAD,2023-02-18 22:32:01,15.08848039,0.0001178,53.2173,298.4966,68.4498,291.6619,0.00015341,2.155e-05,0.0,0 STARLINK-5178,1 54083U 22136AJ  23049.93891069  .00002155  00000-0  15341-3 0  9997,2 54083  53.2173 298.4966 0001178  68.4498 291.6619 15.08848039 19171,6917.856,95.437,540.536,538.906,0.0
54083.0,STARLINK-5178,PAYLOAD,2023-02-19 09:39:43,15.08847353,0.0001293,53.218,296.4154,71.7411,288.3722,0.00013379,1.842e-05,0.0,0 STARLINK-5178,1 54083U 22136AJ  23050.40258920  .00001842  00000-0  13379-3 0  9995,2 54083  53.2180 296.4154 0001293  71.7411 288.3722 15.08847353 18766,6917.858,95.437,540.617,538.828,0.0
54083.0,STARLINK-5178,PAYLOAD,2023-02-19 22:22:49,15.08840314,0.0001226,53.2189,294.0321,81.368,278.7451,9.5103e-05,1.226e-05,0.0,0 STARLINK-5178,1 54083U 22136AJ  23050.93251549  .00001226  00000-0  95103-4 0  9995,2 54083  53.2189 294.0321 0001226  81.3680 278.7451 15.08840314 19321,6917.879,95.438,540.593,538.896,0.0
54083.0,STARLINK-5178,PAYLOAD,2023-02-20 09:30:30,15.08847825,0.0001266,53.2171,291.954,74.2635,285.8496,2.8842e-05,1.71e-06,0.0,0 STARLINK-5178,1 54083U 22136AJ  23051.39619165  .00000171  00000-0  28842-4 0  9992,2 54083  53.2171 291.9540 0001266  74.2635 285.8496 15.08847825 18912,6917.856,95.437,540.597,538.846,0.0
54083.0,STARLINK-5178,PAYLOAD,2023-02-21 01:24:22,15.08847366,0.000124,53.2171,288.9778,106.9896,253.1232,-8.3829e-05,-1.622e-05,0.0,0 STARLINK-5178,1 54083U 22136AJ  23052.05859155 -.00001622  00000-0 -83829-4 0  9991,2 54083  53.2171 288.9778 0001240 106.9896 253.1232 15.08847366 19495,6917.858,95.437,540.581,538.865,0.0
54083.0,STARLINK-5178,PAYLOAD,2023-02-21 22:04:22,15.08843044,0.0001301,53.2174,285.1131,83.8188,276.2952,2.1505e-06,-2.54e-06,0.0,0 STARLINK-5178,1 54083U 22136AJ  23052.91970889 -.00000254  00000-0  21505-5 0  9997,2 54083  53.2174 285.1131 0001301  83.8188 276.2952 15.08843044 19141,6917.871,95.437,540.636,538.836,0.0
54083.0,STARLINK-5178,PAYLOAD,2023-02-22 01:15:08,15.08847182,0.0001371,53.2171,284.5182,85.452,274.6629,2.0572e-06,-2.55e-06,0.0,0 STARLINK-5178,1 54083U 22136AJ  23053.05218586 -.00000255  00000-0  20572-5 0  9996,2 54083  53.2171 284.5182 0001371  85.4520 274.6629 15.08847182 19164,6917.858,95.437,540.672,538.775,0.0
54083.0,STARLINK-5178,PAYLOAD,2023-02-22 21:55:12,15.08818635,0.0001133,53.2167,280.6534,87.499,272.6132,-0.00014569,-2.604e-05,0.0,0 STARLINK-5178,1 54083U 22136AJ  23053.91333559 -.00002604  00000-0 -14569-3 0  9997,2 54083  53.2167 280.6534 0001133  87.4990 272.6132 15.08818635 19298,6917.946,95.439,540.594,539.027,0.0
54083.0,STARLINK-5178,PAYLOAD,2023-02-23 13:49:03,15.08825594,0.000121,53.2175,277.6781,90.2666,269.8465,-4.1672e-05,-9.51e-06,0.0,0 STARLINK-5178,1 54083U 22136AJ  23054.57573393 -.00000951  00000-0 -41672-4 0  9991,2 54083  53.2175 277.6781 0001210  90.2666 269.8465 15.08825594 19395,6917.924,95.438,540.626,538.952,0.0
54083.0,STARLINK-5178,PAYLOAD,2023-02-23 15:24:26,15.08833411,0.0001165,53.2165,277.3829,90.4819,269.6307,-5.682e-05,-1.192e-05,0.0,0 STARLINK-5178,1 54083U 22136AJ  23054.64197018 -.00001192  00000-0 -56820-4 0  9994,2 54083  53.2165 277.3829 0001165  90.4819 269.6307 15.08833411 19889,6917.901,95.438,540.571,538.96,0.0
54083.0,STARLINK-5178,PAYLOAD,2023-02-23 21:45:58,15.08842225,0.0001159,53.2168,276.1936,87.8814,272.231,7.3814e-06,-1.7e-06,0.0,0 STARLINK-5178,1 54083U 22136AJ  23054.90692335 -.00000170  00000-0  73814-5 0  9992,2 54083  53.2168 276.1936 0001159  87.8814 272.2310 15.08842225 19445,6917.874,95.437,540.54,538.937,0.0
54083.0,STARLINK-5178,PAYLOAD,2023-02-24 00:56:44,15.08842857,0.0001181,53.2162,275.5983,89.73,270.3827,3.1689e-05,2.17e-06,0.0,0 STARLINK-5178,1 54083U 22136AJ  23055.03940204  .00000217  00000-0  31689-4 0  9992,2 54083  53.2162 275.5983 0001181  89.7300 270.3827 15.08842857 19948,6917.872,95.437,540.554,538.92,0.0
54083.0,STARLINK-5178,PAYLOAD,2023-02-24 13:39:49,15.08832031,0.0001133,53.216,273.2193,88.7514,271.3608,0.00020277,2.94e-05,0.0,0 STARLINK-5178,1 54083U 22136AJ  23055.56932365  .00002940  00000-0  20277-3 0  9994,2 54083  53.2160 273.2193 0001133  88.7514 271.3608 15.08832031 19544,6917.905,95.438,540.554,538.986,0.0
54083.0,STARLINK-5178,PAYLOAD,2023-02-24 21:36:44,15.0884368,0.0001096,53.2157,271.7325,90.1201,269.9916,0.00016977,2.415e-05,0.0,0 STARLINK-5178,1 54083U 22136AJ  23055.90051840  .00002415  00000-0  16977-3 0  9991,2 54083  53.2157 271.7325 0001096  90.1201 269.9916 15.08843680 19590,6917.869,95.437,540.492,538.976,0.0
54083.0,STARLINK-5178,PAYLOAD,2023-02-25 07:09:03,15.08842299,0.0001084,53.216,269.9482,86.5927,273.5189,0.00010832,1.437e-05,0.0,0 STARLINK-5178,1 54083U 22136AJ  23056.29796020  .00001437  00000-0  10832-3 0  9997,2 54083  53.2160 269.9482 0001084  86.5927 273.5189 15.08842299 20138,6917.873,95.437,540.488,538.988,0.0
